INTELSAT 906 (IS-906)   
1 27513U 02041A   26167.17525350  .00000008  00000+0  00000+0 0  9991
2 27513   5.8002  72.9349 0004607   6.1806 312.5671  1.00272749 87010
NIMIQ 2                 
1 27632U 02062A   26166.61156685 -.00000074  00000+0  00000+0 0  9999
2 27632   9.4428  56.9163 0005400  22.5888 295.3572  1.00271696 44161
USA 167                 
1 27691U 03008A   26167.15767196 -.00000004  00000+0  00000+0 0  9993
2 27691  10.9597  43.4191 0003857 311.2621 204.8105  1.00272665  6767
USA 169 (MILSTAR-2 4)   
1 27711U 03012A   26166.51005898 -.00000251  00000+0  00000+0 0  9998
2 27711  12.3470  29.8564 0100566   9.0978 200.5963  1.00273153 32936
ASIASAT 4               
1 27718U 03014A   26166.51870641 -.00000223  00000+0  00000+0 0  9992
2 27718   4.7001  75.7687 0002990  13.4912 148.8183  1.00270670 45284
HELLAS-SAT 2            
1 27811U 03020A   26166.96992727 -.00000089  00000+0  00000+0 0  9992
2 27811   7.3521  67.8987 0002398  22.7317 152.7686  1.00271057 42833
THURAYA-2               
1 27825U 03026A   26166.78741924  .00000120  00000+0  00000+0 0  9999
2 27825   8.8384  31.9837 0003035  11.4389 188.1203  1.00273543 84331
OPTUS C1                
1 27831U 03028B   26167.02405919 -.00000156  00000+0  00000+0 0  9997
2 27831   6.8871  69.4239 0005438  11.9849 347.2954  1.00272335 53047
USA 170                 
1 27875U 03040A   26166.85739491  .00000119  00000+0  00000+0 0  9992
2 27875  10.4979  47.9622 0001565  61.9528 127.1615  1.00268469 32980
GALAXY 13 (HORIZONS-1)  
1 27954U 03044A   26167.22610641  .00000131  00000+0  00000+0 0  9995
2 27954   1.4169  83.8779 0002275 351.6965 120.3111  1.00270589 46565
YAMAL 202               
1 28089U 03053A   26167.02405919 -.00000084  00000+0  00000+0 0  9991
2 28089   6.3399  70.9516 0003294   2.3135   3.2714  1.00271219 82694
UFO 11 (USA 174)        
1 28117U 03057A   26167.12950377 -.00000112  00000+0  00000+0 0  9993
2 28117   8.9354  33.8336 0002582  59.5687 293.2426  1.00274258 82437
USA 176 (DSP 22)        
1 28158U 04004A   26162.97340249 -.00000286  00000+0  00000+0 0  9992
2 28158  12.0550  26.1076 0001239 290.9902 243.8917  1.00406369 32881
ABS-4 (MOBISAT-1)       
1 28184U 04007A   26166.79493670  .00000036  00000+0  00000+0 0  9997
2 28184   6.0382  72.0252 0005189  10.7986 168.3952  1.00273227 52326
INTELSAT 10-02          
1 28358U 04022A   26166.68656492 -.00000009  00000+0  00000+0 0  9999
2 28358   0.0116 317.0110 0000298 255.8494 297.2601  1.00272857 80541
ANIK F2                 
1 28378U 04027A   26167.09259708 -.00000052  00000+0  00000+0 0  9999
2 28378   3.2846  79.4629 0004009   7.7729  99.3369  1.00271458 41254
AMC-15                  
1 28446U 04041A   26166.34029156 -.00000085  00000+0  00000+0 0  9996
2 28446   0.0171 335.3772 0002105 120.9116 184.8039  1.00271456 79288
NSS-10                  
1 28526U 05003A   26166.03776958 -.00000252  00000+0  00000+0 0  9995
2 28526   6.4443  70.4795 0002654   2.6584 166.3401  1.00270601 53130
INMARSAT 4-F1           
1 28628U 05009A   26165.79527542  .00000034  00000+0  00000+0 0  9996
2 28628   5.1647  42.7552 0002458  42.6985 282.0547  1.00271327 77644
DIRECTV 8               
1 28659U 05019A   26167.17336506  .00000001  00000+0  00000+0 0  9997
2 28659   0.0180 327.5502 0002779 121.9403 118.3123  1.00271639 77068
GALAXY 28 (G-28)        
1 28702U 05022A   26167.10913703 -.00000203  00000+0  00000+0 0  9998
2 28702   3.2959  78.9474 0002876   5.8042 191.8189  1.00270791 51965
THAICOM 4               
1 28786U 05028A   26166.93587634 -.00000362  00000+0  00000+0 0  9992
2 28786   0.2429  85.8915 0001580 350.6025 284.1326  1.00270056 52230
ANIK F1R                
1 28868U 05036A   26166.66559149 -.00000076  00000+0  00000+0 0  9994
2 28868   4.3091  76.5984 0003998   0.4394 319.2359  1.00270615 46430
SYRACUSE 3A             
1 28885U 05041B   26166.99626822  .00000126  00000+0  00000+0 0  9993
2 28885   4.6397  75.8537 0002957 350.2111 243.5374  1.00274602 75735
INMARSAT 4-F2           
1 28899U 05044A   26166.36240603 -.00000261  00000+0  00000+0 0  9992
2 28899   5.0924  43.7023 0002789  34.6752  99.2253  1.00270350 75505
METEOSAT-9 (MSG-2)      
1 28912U 05049B   26166.83834346  .00000118  00000+0  00000+0 0  9998
2 28912   9.3585  54.1816 0001578 343.5552 213.8225  1.00271428  6988
EUTELSAT 174A           
1 28924U 05052A   26167.07769037  .00000006  00000+0  00000+0 0  9992
2 28924   4.2171  76.5411 0006113   7.7738  21.9599  1.00270920 52327
ECHOSTAR 10             
1 28935U 06003A   26167.09268375 -.00000055  00000+0  00000+0 0  9997
2 28935   0.0174 359.6031 0001410  61.3478 126.5851  1.00270672 74456
SPAINSAT                
1 28945U 06007A   26166.35163704 -.00000214  00000+0  00000+0 0  9997
2 28945   0.5589  86.5543 0004627 356.9619 276.5343  1.00270116 74207
JCSAT-5A                
1 29045U 06010A   26166.99809397 -.00000328  00000+0  00000+0 0  9994
2 29045   1.1068  84.2274 0001889  20.0703 291.3204  1.00269422 73752
ASTRA 1KR               
1 29055U 06012A   26167.11832373  .00000118  00000+0  00000+0 0  9998
2 29055   0.4715  83.1998 0003258 356.7480 246.0121  1.00270914 45682
GALAXY 16 (G-16)        
1 29236U 06023A   26167.20878065 -.00000127  00000+0  00000+0 0  9990
2 29236   0.0085 291.2106 0002479 165.3557 144.0627  1.00270267 72965
