OBJECT_NAME,OBJECT_ID,EPOCH,MEAN_MOTION,ECCENTRICITY,INCLINATION,RA_OF_ASC_NODE,ARG_OF_PERICENTER,MEAN_ANOMALY,EPHEMERIS_TYPE,CLASSIFICATION_TYPE,NORAD_CAT_ID,ELEMENT_SET_NO,REV_AT_EPOCH,BSTAR,MEAN_MOTION_DOT,MEAN_MOTION_DDOT
INTELSAT 906 (IS-906),2002-041A,2026-06-16T04:12:21.902400,1.00272749,.0004607,5.8002,72.9349,6.1806,312.5671,0,U,27513,999,8701,0,.8E-7,0
NIMIQ 2,2002-062A,2026-06-15T14:40:39.375840,1.00271696,.00054002,9.4428,56.9163,22.5888,295.3572,0,U,27632,999,4416,0,-.74E-6,0
USA 167,2003-008A,2026-06-16T03:47:02.857344,1.00272665,.0003857,10.9597,43.4191,311.2621,204.8105,0,U,27691,999,676,0,-.4E-7,0
USA 169 (MILSTAR-2 4),2003-012A,2026-06-15T12:14:29.095872,1.00273153,.0100566,12.3470,29.8564,9.0978,200.5963,0,U,27711,999,3293,0,-.251E-5,0
ASIASAT 4,2003-014A,2026-06-15T12:26:56.233824,1.00270670,.00029906,4.7001,75.7687,13.4912,148.8183,0,U,27718,999,4528,0,-.223E-5,0
HELLAS-SAT 2,2003-020A,2026-06-15T23:16:41.716128,1.00271057,.0002398,7.3521,67.8987,22.7317,152.7686,0,U,27811,999,4283,0,-.89E-6,0
THURAYA-2,2003-026A,2026-06-15T18:53:53.022336,1.00273543,.00030356,8.8384,31.9837,11.4389,188.1203,0,U,27825,999,8433,0,.12E-5,0
OPTUS C1,2003-028B,2026-06-16T00:34:38.714016,1.00272335,.0005438,6.8871,69.4239,11.9849,347.2954,0,U,27831,999,5304,0,-.156E-5,0
USA 170,2003-040A,2026-06-15T20:34:38.920224,1.00268469,.0001565,10.4979,47.9622,61.9528,127.1615,0,U,27875,999,3298,0,.119E-5,0
GALAXY 13 (HORIZONS-1),2003-044A,2026-06-16T05:25:35.593824,1.00270589,.0002275,1.4169,83.8779,351.6965,120.3111,0,U,27954,999,4656,0,.131E-5,0
YAMAL 202,2003-053A,2026-06-16T00:34:38.714016,1.00271219,.0003294,6.3399,70.9516,2.3135,3.2714,0,U,28089,999,8269,0,-.84E-6,0
UFO 11 (USA 174),2003-057A,2026-06-16T03:06:29.125728,1.00274258,.0002582,8.9354,33.8336,59.5687,293.2426,0,U,28117,999,8243,0,-.112E-5,0
USA 176 (DSP 22),2004-004A,2026-06-11T23:21:41.975136,1.00406369,.0001239,12.0550,26.1076,290.9902,243.8917,0,U,28158,999,3288,0,-.286E-5,0
ABS-4 (MOBISAT-1),2004-007A,2026-06-15T19:04:42.530880,1.00273227,.00051894,6.0382,72.0252,10.7986,168.3952,0,U,28184,999,5232,0,.36E-6,0
INTELSAT 10-02,2004-022A,2026-06-15T16:28:39.209088,1.00272857,.00002983,0.0116,317.0110,255.8494,297.2601,0,U,28358,999,8054,0,-.9E-7,0
ANIK F2,2004-027A,2026-06-16T02:13:20.387712,1.00271458,.0004009,3.2846,79.4629,7.7729,99.3369,0,U,28378,999,4125,0,-.52E-6,0
AMC-15,2004-041A,2026-06-15T08:10:01.190784,1.00271456,.00021056,0.0171,335.3772,120.9116,184.8039,0,U,28446,999,7928,0,-.85E-6,0
NSS-10,2005-003A,2026-06-15T00:54:23.291712,1.00270601,.00026548,6.4443,70.4795,2.6584,166.3401,0,U,28526,999,5313,0,-.252E-5,0
INMARSAT 4-F1,2005-009A,2026-06-14T19:05:11.796288,1.00271327,.0002458,5.1647,42.7552,42.6985,282.0547,0,U,28628,999,7764,0,.34E-6,0
DIRECTV 8,2005-019A,2026-06-16T04:09:38.741184,1.00271639,.0002779,0.0180,327.5502,121.9403,118.3123,0,U,28659,999,7706,0,.1E-7,0
GALAXY 28 (G-28),2005-022A,2026-06-16T02:37:09.439392,1.00270791,.0002876,3.2959,78.9474,5.8042,191.8189,0,U,28702,999,5196,0,-.203E-5,0
THAICOM 4,2005-028A,2026-06-15T22:27:39.715776,1.00270056,.000158,0.2429,85.8915,350.6025,284.1326,0,U,28786,999,5223,0,-.362E-5,0
ANIK F1R,2005-036A,2026-06-15T15:58:27.104736,1.00270615,.00039989,4.3091,76.5984,0.4394,319.2359,0,U,28868,999,4643,0,-.76E-6,0
SYRACUSE 3A,2005-041B,2026-06-15T23:54:37.574208,1.00274602,.0002957,4.6397,75.8537,350.2111,243.5374,0,U,28885,999,7573,0,.126E-5,0
INMARSAT 4-F2,2005-044A,2026-06-15T08:41:51.880992,1.00270350,.00027898,5.0924,43.7023,34.6752,99.2253,0,U,28899,999,7550,0,-.261E-5,0
METEOSAT-9 (MSG-2),2005-049B,2026-06-15T20:07:12.874944,1.00271428,.00015787,9.3585,54.1816,343.5552,213.8225,0,U,28912,999,698,0,.118E-5,0
EUTELSAT 174A,2005-052A,2026-06-16T01:51:52.447968,1.00270920,.0006113,4.2171,76.5411,7.7738,21.9599,0,U,28924,999,5232,0,.6E-7,0
ECHOSTAR 10,2006-003A,2026-06-16T02:13:27.876000,1.00270672,.000141,0.0174,359.6031,61.3478,126.5851,0,U,28935,999,7445,0,-.55E-6,0
SPAINSAT,2006-007A,2026-06-15T08:26:21.440256,1.00270116,.0004627,0.5589,86.5543,356.9619,276.5343,0,U,28945,999,7420,0,-.214E-5,0
JCSAT-5A,2006-010A,2026-06-15T23:57:15.319008,1.00269422,.0001889,1.1068,84.2274,20.0703,291.3204,0,U,29045,999,7375,0,-.328E-5,0
ASTRA 1KR,2006-012A,2026-06-16T02:50:23.170272,1.00270914,.0003258,0.4715,83.1998,356.7480,246.0121,0,U,29055,999,4568,0,.118E-5,0
GALAXY 16 (G-16),2006-023A,2026-06-16T05:00:38.648160,1.00270267,.0002479,0.0085,291.2106,165.3557,144.0627,0,U,29236,999,7296,0,-.127E-5,0
